{
  "type": "FeatureCollection",
  "features": [
    {
      "type": "Feature",
      "properties": {
        "norad_id": 35432,
        "name": "COSMOS 2251 DEB",
        "group": "cosmos-2251-debris",
        "lat": 65.78286287057387,
        "lon": 56.78917685283111,
        "alt_km": 490.9527952732751,
        "timestamp": "2025-12-11T22:43:47.666709+00:00",
        "meta_object_name": "COSMOS 2251 DEB",
        "meta_object_id": "1993-036AKA",
        "meta_epoch": "2025-12-11T01:54:57.919392",
        "meta_mean_motion": 15.22380706,
        "meta_eccentricity": 0.00122504,
        "meta_inclination": 74.0238,
        "meta_ra_of_asc_node": 19.0481,
        "meta_arg_of_pericenter": 344.223,
        "meta_mean_anomaly": 15.8585,
        "meta_ephemeris_type": 0,
        "meta_classification_type": "U",
        "meta_norad_cat_id": 35432,
        "meta_element_set_no": 999,
        "meta_rev_at_epoch": 87478,
        "meta_bstar": 0.0073021288,
        "meta_mean_motion_dot": 0.00172981,
        "meta_mean_motion_ddot": 0,
        "tle_line1": "1 35432U 93036AKA 25345.07983703  .00172981  00000+0  73021-2 0  9996",
        "tle_line2": "2 35432  74.0238  19.0481 0012250 344.2230  15.8585 15.22380706874784"
      },
      "geometry": {
        "type": "Point",
        "coordinates": [
          56.78917685283111,
          65.78286287057387
        ]
      }
    },
    {
      "type": "Feature",
      "properties": {
        "norad_id": 35433,
        "name": "COSMOS 2251 DEB",
        "group": "cosmos-2251-debris",
        "lat": 37.3812117994998,
        "lon": 147.26399414385966,
        "alt_km": 777.735536150899,
        "timestamp": "2025-12-11T22:43:47.666719+00:00",
        "meta_object_name": "COSMOS 2251 DEB",
        "meta_object_id": "1993-036AKB",
        "meta_epoch": "2025-12-10T18:27:52.031808",
        "meta_mean_motion": 14.34742553,
        "meta_eccentricity": 0.00254013,
        "meta_inclination": 74.0339,
        "meta_ra_of_asc_node": 342.0559,
        "meta_arg_of_pericenter": 37.4572,
        "meta_mean_anomaly": 142.4072,
        "meta_ephemeris_type": 0,
        "meta_classification_type": "U",
        "meta_norad_cat_id": 35433,
        "meta_element_set_no": 999,
        "meta_rev_at_epoch": 86552,
        "meta_bstar": 0.00041847558,
        "meta_mean_motion_dot": 1.164e-05,
        "meta_mean_motion_ddot": 0,
        "tle_line1": "1 35433U 93036AKB 25344.76935222  .00001164  00000+0  41848-3 0  9992",
        "tle_line2": "2 35433  74.0339 342.0559 0025401  37.4572 142.4072 14.34742553865528"
      },
      "geometry": {
        "type": "Point",
        "coordinates": [
          147.26399414385966,
          37.3812117994998
        ]
      }
    },
    {
      "type": "Feature",
      "properties": {
        "norad_id": 35434,
        "name": "COSMOS 2251 DEB",
        "group": "cosmos-2251-debris",
        "lat": 72.04482174696123,
        "lon": -82.92687899161761,
        "alt_km": 856.139764819467,
        "timestamp": "2025-12-11T22:43:47.666729+00:00",
        "meta_object_name": "COSMOS 2251 DEB",
        "meta_object_id": "1993-036AKC",
        "meta_epoch": "2025-12-11T08:52:23.274048",
        "meta_mean_motion": 14.25682257,
        "meta_eccentricity": 0.00875072,
        "meta_inclination": 74.0403,
        "meta_ra_of_asc_node": 216.0983,
        "meta_arg_of_pericenter": 287.1245,
        "meta_mean_anomaly": 72.0334,
        "meta_ephemeris_type": 0,
        "meta_classification_type": "U",
        "meta_norad_cat_id": 35434,
        "meta_element_set_no": 999,
        "meta_rev_at_epoch": 86098,
        "meta_bstar": 0.00095825855,
        "meta_mean_motion_dot": 2.34e-05,
        "meta_mean_motion_ddot": 0,
        "tle_line1": "1 35434U 93036AKC 25345.36971382  .00002340  00000+0  95826-3 0  9999",
        "tle_line2": "2 35434  74.0403 216.0983 0087507 287.1245  72.0334 14.25682257860986"
      },
      "geometry": {
        "type": "Point",
        "coordinates": [
          -82.92687899161761,
          72.04482174696123
        ]
      }
    },
    {
      "type": "Feature",
      "properties": {
        "norad_id": 35435,
        "name": "COSMOS 2251 DEB",
        "group": "cosmos-2251-debris",
        "lat": 53.19067161737825,
        "lon": -96.9049705750414,
        "alt_km": 627.5430079331018,
        "timestamp": "2025-12-11T22:43:47.666739+00:00",
        "meta_object_name": "COSMOS 2251 DEB",
        "meta_object_id": "1993-036AKD",
        "meta_epoch": "2025-12-11T01:35:23.280288",
        "meta_mean_motion": 14.78375379,
        "meta_eccentricity": 0.00082091,
        "meta_inclination": 74.0093,
        "meta_ra_of_asc_node": 107.3593,
        "meta_arg_of_pericenter": 201.1094,
        "meta_mean_anomaly": 276.4559,
        "meta_ephemeris_type": 0,
        "meta_classification_type": "U",
        "meta_norad_cat_id": 35435,
        "meta_element_set_no": 999,
        "meta_rev_at_epoch": 87514,
        "meta_bstar": 0.0035391532,
        "meta_mean_motion_dot": 0.00025849,
        "meta_mean_motion_ddot": 0,
        "tle_line1": "1 35435U 93036AKD 25345.06624167  .00025849  00000+0  35392-2 0  9993",
        "tle_line2": "2 35435  74.0093 107.3593 0008209 201.1094 276.4559 14.78375379875146"
      },
      "geometry": {
        "type": "Point",
        "coordinates": [
          -96.9049705750414,
          53.19067161737825
        ]
      }
    },
    {
      "type": "Feature",
      "properties": {
        "norad_id": 35439,
        "name": "COSMOS 2251 DEB",
        "group": "cosmos-2251-debris",
        "lat": -59.381598271307844,
        "lon": 107.13981835753579,
        "alt_km": 751.1419190088354,
        "timestamp": "2025-12-11T22:43:47.666749+00:00",
        "meta_object_name": "COSMOS 2251 DEB",
        "meta_object_id": "1993-036AKH",
        "meta_epoch": "2025-12-11T04:55:48.885888",
        "meta_mean_motion": 13.92796753,
        "meta_eccentricity": 0.02419274,
        "meta_inclination": 74.0198,
        "meta_ra_of_asc_node": 137.3683,
        "meta_arg_of_pericenter": 307.011,
        "meta_mean_anomaly": 232.6694,
        "meta_ephemeris_type": 0,
        "meta_classification_type": "U",
        "meta_norad_cat_id": 35439,
        "meta_element_set_no": 999,
        "meta_rev_at_epoch": 83939,
        "meta_bstar": 0.0020869419,
        "meta_mean_motion_dot": 3.412e-05,
        "meta_mean_motion_ddot": 0,
        "tle_line1": "1 35439U 93036AKH 25345.20542692  .00003412  00000+0  20869-2 0  9990",
        "tle_line2": "2 35439  74.0198 137.3683 0241927 307.0110 232.6694 13.92796753839399"
      },
      "geometry": {
        "type": "Point",
        "coordinates": [
          107.13981835753579,
          -59.381598271307844
        ]
      }
    },
    {
      "type": "Feature",
      "properties": {
        "norad_id": 35440,
        "name": "COSMOS 2251 DEB",
        "group": "cosmos-2251-debris",
        "lat": 27.21704777945765,
        "lon": 20.685222013567195,
        "alt_km": 709.5912588689171,
        "timestamp": "2025-12-11T22:43:47.666759+00:00",
        "meta_object_name": "COSMOS 2251 DEB",
        "meta_object_id": "1993-036AKJ",
        "meta_epoch": "2025-12-10T08:26:45.842208",
        "meta_mean_motion": 14.68793955,
        "meta_eccentricity": 0.00692048,
        "meta_inclination": 74.0146,
        "meta_ra_of_asc_node": 212.2531,
        "meta_arg_of_pericenter": 353.6751,
        "meta_mean_anomaly": 6.3537,
        "meta_ephemeris_type": 0,
        "meta_classification_type": "U",
        "meta_norad_cat_id": 35440,
        "meta_element_set_no": 999,
        "meta_rev_at_epoch": 68730,
        "meta_bstar": 0.0006737672,
        "meta_mean_motion_dot": 4.046e-05,
        "meta_mean_motion_ddot": 0,
        "tle_line1": "1 35440U 93036AKJ 25344.35191947  .00004046  00000+0  67377-3 0  9990",
        "tle_line2": "2 35440  74.0146 212.2531 0069204 353.6751   6.3537 14.68793955687302"
      },
      "geometry": {
        "type": "Point",
        "coordinates": [
          20.685222013567195,
          27.21704777945765
        ]
      }
    },
    {
      "type": "Feature",
      "properties": {
        "norad_id": 35441,
        "name": "COSMOS 2251 DEB",
        "group": "cosmos-2251-debris",
        "lat": 54.4092671718723,
        "lon": 96.19577927741818,
        "alt_km": 672.3512321423705,
        "timestamp": "2025-12-11T22:43:47.666769+00:00",
        "meta_object_name": "COSMOS 2251 DEB",
        "meta_object_id": "1993-036AKK",
        "meta_epoch": "2025-12-11T13:57:45.009216",
        "meta_mean_motion": 14.62564221,
        "meta_eccentricity": 0.00369307,
        "meta_inclination": 74.1343,
        "meta_ra_of_asc_node": 300.3057,
        "meta_arg_of_pericenter": 197.5882,
        "meta_mean_anomaly": 162.401,
        "meta_ephemeris_type": 0,
        "meta_classification_type": "U",
        "meta_norad_cat_id": 35441,
        "meta_element_set_no": 999,
        "meta_rev_at_epoch": 87413,
        "meta_bstar": 0.0026744253,
        "meta_mean_motion_dot": 0.00013709,
        "meta_mean_motion_ddot": 0,
        "tle_line1": "1 35441U 93036AKK 25345.58177094  .00013709  00000+0  26744-2 0  9992",
        "tle_line2": "2 35441  74.1343 300.3057 0036930 197.5882 162.4010 14.62564221874130"
      },
      "geometry": {
        "type": "Point",
        "coordinates": [
          96.19577927741818,
          54.4092671718723
        ]
      }
    }
  ]
}